{
  "type": "FeatureCollection",
  "features": [
    {
      "type": "Feature",
      "properties": {
        "norad_id": 30004,
        "name": "FENGYUN 1C DEB",
        "group": "fengyun-1c-debris",
        "lat": -54.4755961968097,
        "lon": -30.35616916966901,
        "alt_km": 856.7211199041722,
        "timestamp": "2025-12-07T20:38:14.337013+00:00",
        "meta_object_name": "FENGYUN 1C DEB",
        "meta_object_id": "1999-025MD",
        "meta_epoch": "2025-12-07T06:48:56.420640",
        "meta_mean_motion": 14.17037186,
        "meta_eccentricity": 0.00387091,
        "meta_inclination": 99.2232,
        "meta_ra_of_asc_node": 162.202,
        "meta_arg_of_pericenter": 358.2611,
        "meta_mean_anomaly": 181.3442,
        "meta_ephemeris_type": 0,
        "meta_classification_type": "U",
        "meta_norad_cat_id": 30004,
        "meta_element_set_no": 999,
        "meta_rev_at_epoch": 97229,
        "meta_bstar": 0.0011583711,
        "meta_mean_motion_dot": 2.299e-05,
        "meta_mean_motion_ddot": 0,
        "tle_line1": "1 30004U 99025MD  25341.28398635  .00002299  00000+0  11584-2 0  9993",
        "tle_line2": "2 30004  99.2232 162.2020 0038709 358.2611 181.3442 14.17037186972292"
      },
      "geometry": {
        "type": "Point",
        "coordinates": [
          -30.35616916966901,
          -54.4755961968097
        ]
      }
    },
    {
      "type": "Feature",
      "properties": {
        "norad_id": 30005,
        "name": "FENGYUN 1C DEB",
        "group": "fengyun-1c-debris",
        "lat": 51.47333386205676,
        "lon": 135.9853678167089,
        "alt_km": 818.5517577771489,
        "timestamp": "2025-12-07T20:38:14.337023+00:00",
        "meta_object_name": "FENGYUN 1C DEB",
        "meta_object_id": "1999-025ME",
        "meta_epoch": "2025-12-07T04:03:09.564480",
        "meta_mean_motion": 13.52198954,
        "meta_eccentricity": 0.03465967,
        "meta_inclination": 99.3016,
        "meta_ra_of_asc_node": 303.458,
        "meta_arg_of_pericenter": 107.4509,
        "meta_mean_anomaly": 256.4825,
        "meta_ephemeris_type": 0,
        "meta_classification_type": "U",
        "meta_norad_cat_id": 30005,
        "meta_element_set_no": 999,
        "meta_rev_at_epoch": 92871,
        "meta_bstar": 0.0016192135,
        "meta_mean_motion_dot": 1.519e-05,
        "meta_mean_motion_ddot": 0,
        "tle_line1": "1 30005U 99025ME  25341.16886070  .00001519  00000+0  16192-2 0  9990",
        "tle_line2": "2 30005  99.3016 303.4580 0346596 107.4509 256.4825 13.52198954928716"
      },
      "geometry": {
        "type": "Point",
        "coordinates": [
          135.9853678167089,
          51.47333386205676
        ]
      }
    },
    {
      "type": "Feature",
      "properties": {
        "norad_id": 30007,
        "name": "FENGYUN 1C DEB",
        "group": "fengyun-1c-debris",
        "lat": 32.25001874877738,
        "lon": 68.83685892710444,
        "alt_km": 827.8780712943835,
        "timestamp": "2025-12-07T20:38:14.337033+00:00",
        "meta_object_name": "FENGYUN 1C DEB",
        "meta_object_id": "1999-025MG",
        "meta_epoch": "2025-12-07T05:29:40.516224",
        "meta_mean_motion": 14.25345628,
        "meta_eccentricity": 0.00656592,
        "meta_inclination": 99.178,
        "meta_ra_of_asc_node": 242.3222,
        "meta_arg_of_pericenter": 30.1383,
        "meta_mean_anomaly": 120.6418,
        "meta_ephemeris_type": 0,
        "meta_classification_type": "U",
        "meta_norad_cat_id": 30007,
        "meta_element_set_no": 999,
        "meta_rev_at_epoch": 97277,
        "meta_bstar": 0.0028350483,
        "meta_mean_motion_dot": 6.791e-05,
        "meta_mean_motion_ddot": 0,
        "tle_line1": "1 30007U 99025MG  25341.22894116  .00006791  00000+0  28350-2 0  9995",
        "tle_line2": "2 30007  99.1780 242.3222 0065659  30.1383 120.6418 14.25345628972776"
      },
      "geometry": {
        "type": "Point",
        "coordinates": [
          68.83685892710444,
          32.25001874877738
        ]
      }
    },
    {
      "type": "Feature",
      "properties": {
        "norad_id": 30008,
        "name": "FENGYUN 1C DEB",
        "group": "fengyun-1c-debris",
        "lat": 45.29911652095544,
        "lon": -72.0528616566502,
        "alt_km": 695.280876192588,
        "timestamp": "2025-12-07T20:38:14.337043+00:00",
        "meta_object_name": "FENGYUN 1C DEB",
        "meta_object_id": "1999-025MH",
        "meta_epoch": "2025-12-06T20:09:50.593824",
        "meta_mean_motion": 14.66095514,
        "meta_eccentricity": 0.00385874,
        "meta_inclination": 99.3688,
        "meta_ra_of_asc_node": 296.3886,
        "meta_arg_of_pericenter": 210.8151,
        "meta_mean_anomaly": 216.4904,
        "meta_ephemeris_type": 0,
        "meta_classification_type": "U",
        "meta_norad_cat_id": 30008,
        "meta_element_set_no": 999,
        "meta_rev_at_epoch": 98973,
        "meta_bstar": 0.0038501958,
        "meta_mean_motion_dot": 0.00021378,
        "meta_mean_motion_ddot": 0,
        "tle_line1": "1 30008U 99025MH  25340.84016891  .00021378  00000+0  38502-2 0  9997",
        "tle_line2": "2 30008  99.3688 296.3886 0038587 210.8151 216.4904 14.66095514989730"
      },
      "geometry": {
        "type": "Point",
        "coordinates": [
          -72.0528616566502,
          45.29911652095544
        ]
      }
    },
    {
      "type": "Feature",
      "properties": {
        "norad_id": 30009,
        "name": "FENGYUN 1C DEB",
        "group": "fengyun-1c-debris",
        "lat": 73.72704975851907,
        "lon": -110.23879797900038,
        "alt_km": 888.6518859223434,
        "timestamp": "2025-12-07T20:38:14.337053+00:00",
        "meta_object_name": "FENGYUN 1C DEB",
        "meta_object_id": "1999-025MJ",
        "meta_epoch": "2025-12-07T03:03:19.869120",
        "meta_mean_motion": 14.04837385,
        "meta_eccentricity": 0.00638079,
        "meta_inclination": 99.0151,
        "meta_ra_of_asc_node": 36.0875,
        "meta_arg_of_pericenter": 351.5159,
        "meta_mean_anomaly": 8.4925,
        "meta_ephemeris_type": 0,
        "meta_classification_type": "U",
        "meta_norad_cat_id": 30009,
        "meta_element_set_no": 999,
        "meta_rev_at_epoch": 96404,
        "meta_bstar": 0.0010190523,
        "meta_mean_motion_dot": 1.621e-05,
        "meta_mean_motion_ddot": 0,
        "tle_line1": "1 30009U 99025MJ  25341.12731330  .00001621  00000+0  10191-2 0  9995",
        "tle_line2": "2 30009  99.0151  36.0875 0063807 351.5159   8.4925 14.04837385964045"
      },
      "geometry": {
        "type": "Point",
        "coordinates": [
          -110.23879797900038,
          73.72704975851907
        ]
      }
    },
    {
      "type": "Feature",
      "properties": {
        "norad_id": 30010,
        "name": "FENGYUN 1C DEB",
        "group": "fengyun-1c-debris",
        "lat": -57.14469224178315,
        "lon": -171.8256926500539,
        "alt_km": 804.6210221371139,
        "timestamp": "2025-12-07T20:38:14.337063+00:00",
        "meta_object_name": "FENGYUN 1C DEB",
        "meta_object_id": "1999-025MK",
        "meta_epoch": "2025-12-07T06:34:44.232384",
        "meta_mean_motion": 14.24981731,
        "meta_eccentricity": 0.00724935,
        "meta_inclination": 99.0701,
        "meta_ra_of_asc_node": 173.2488,
        "meta_arg_of_pericenter": 225.2071,
        "meta_mean_anomaly": 312.5063,
        "meta_ephemeris_type": 0,
        "meta_classification_type": "U",
        "meta_norad_cat_id": 30010,
        "meta_element_set_no": 999,
        "meta_rev_at_epoch": 98182,
        "meta_bstar": 0.00025515816,
        "meta_mean_motion_dot": 5.66e-06,
        "meta_mean_motion_ddot": 0,
        "tle_line1": "1 30010U 99025MK  25341.27412306  .00000566  00000+0  25516-3 0  9997",
        "tle_line2": "2 30010  99.0701 173.2488 0072493 225.2071 312.5063 14.24981731981827"
      },
      "geometry": {
        "type": "Point",
        "coordinates": [
          -171.8256926500539,
          -57.14469224178315
        ]
      }
    },
    {
      "type": "Feature",
      "properties": {
        "norad_id": 30012,
        "name": "FENGYUN 1C DEB",
        "group": "fengyun-1c-debris",
        "lat": -42.80529116863122,
        "lon": -153.84497907236488,
        "alt_km": 906.3321909042279,
        "timestamp": "2025-12-07T20:38:14.337073+00:00",
        "meta_object_name": "FENGYUN 1C DEB",
        "meta_object_id": "1999-025MM",
        "meta_epoch": "2025-12-07T02:23:25.060704",
        "meta_mean_motion": 13.85759404,
        "meta_eccentricity": 0.01369344,
        "meta_inclination": 99.4649,
        "meta_ra_of_asc_node": 34.2751,
        "meta_arg_of_pericenter": 160.6241,
        "meta_mean_anomaly": 230.538,
        "meta_ephemeris_type": 0,
        "meta_classification_type": "U",
        "meta_norad_cat_id": 30012,
        "meta_element_set_no": 999,
        "meta_rev_at_epoch": 95470,
        "meta_bstar": 0.00049048758,
        "meta_mean_motion_dot": 5.59e-06,
        "meta_mean_motion_ddot": 0,
        "tle_line1": "1 30012U 99025MM  25341.09959561  .00000559  00000+0  49049-3 0  9997",
        "tle_line2": "2 30012  99.4649  34.2751 0136934 160.6241 230.5380 13.85759404954709"
      },
      "geometry": {
        "type": "Point",
        "coordinates": [
          -153.84497907236488,
          -42.80529116863122
        ]
      }
    }
  ]
}